0 PSLV DEB
1 28430U 01049NW  13281.29949225  .00003523  00000-0  35667-3 0   992
2 28430 097.5202 293.8396 0046339 359.6623 056.5565 14.90767902560720
0 PSLV DEB
1 28430U 01049NW  13282.30803480  .00005081  00000-0  51173-3 0  1001
2 28430 097.5204 294.8003 0046202 356.3239 069.1559 14.90783375560875
0 PSLV DEB
1 28430U 01049NW  13285.85316591  .00003774  00000-0  38145-3 0  1018
2 28430 097.5204 298.1776 0046187 344.5133 015.3673 14.90806075561406
0 PSLV DEB
1 28430U 01049NW  13289.50622597  .00004830  00000-0  48634-3 0  1029
2 28430 097.5191 301.6594 0045783 331.7746 181.7639 14.90837220561943
0 PSLV DEB
1 28430U 01049NW  13292.85615977  .00004986  00000-0  50168-3 0  1033
2 28430 097.5187 304.8506 0045411 320.3653 161.3181 14.90862085562444
0 PSLV DEB
1 28430U 01049NW  13294.86938779  .00006687  00000-0  67067-3 0  1041
2 28430 097.5192 306.7678 0045138 313.7405 166.5158 14.90880231562745
